[{"OBJECT_NAME":"STARLINK-5979","OBJECT_ID":"2023-058AE","EPOCH":"2026-03-09T21:37:34.278816","MEAN_MOTION":15.01261582,"ECCENTRICITY":0.00028491,"INCLINATION":97.6037,"RA_OF_ASC_NODE":70.4284,"ARG_OF_PERICENTER":135.1662,"MEAN_ANOMALY":224.9793,"EPHEMERIS_TYPE":0,"CLASSIFICATION_TYPE":"U","NORAD_CAT_ID":56345,"ELEMENT_SET_NO":999,"REV_AT_EPOCH":15816,"BSTAR":1.3419342e-5,"MEAN_MOTION_DOT":1.14e-6,"MEAN_MOTION_DDOT":0},{"OBJECT_NAME":"SL-8 DEB","OBJECT_ID":"1977-119E","EPOCH":"2026-03-08T21:50:26.826144","MEAN_MOTION":15.02521055,"ECCENTRICITY":0.00060399,"INCLINATION":74.0225,"RA_OF_ASC_NODE":39.6743,"ARG_OF_PERICENTER":252.2066,"MEAN_ANOMALY":138.7099,"EPHEMERIS_TYPE":0,"CLASSIFICATION_TYPE":"U","NORAD_CAT_ID":18512,"ELEMENT_SET_NO":999,"REV_AT_EPOCH":19339,"BSTAR":0.0013899008,"MEAN_MOTION_DOT":0.00018486,"MEAN_MOTION_DDOT":0}]
